{
  "type": "FeatureCollection",
  "features": [
    {
      "type": "Feature",
      "properties": {
        "norad_id": 2807,
        "name": "OPS 7218 (TRANSIT 16)",
        "group": "nnss",
        "lat": -9.030795441730415,
        "lon": -6.333003041186655,
        "alt_km": 1076.2151758611963,
        "timestamp": "2025-12-21T16:47:55.006672+00:00",
        "meta_object_name": "OPS 7218 (TRANSIT 16)",
        "meta_object_id": "1967-048A",
        "meta_epoch": "2025-12-21T12:16:37.767936",
        "meta_mean_motion": 13.50724076,
        "meta_eccentricity": 0.0022159,
        "meta_inclination": 89.6731,
        "meta_ra_of_asc_node": 353.7252,
        "meta_arg_of_pericenter": 90.6887,
        "meta_mean_anomaly": 65.106,
        "meta_ephemeris_type": 0,
        "meta_classification_type": "U",
        "meta_norad_cat_id": 2807,
        "meta_element_set_no": 999,
        "meta_rev_at_epoch": 88394,
        "meta_bstar": 0.00015311,
        "meta_mean_motion_dot": 1.09e-06,
        "meta_mean_motion_ddot": 0,
        "tle_line1": "1 02807U 67048A   25355.51154824  .00000109  00000+0  15311-3 0  9995",
        "tle_line2": "2 02807  89.6731 353.7252 0022159  90.6887  65.1060 13.50724076883942"
      },
      "geometry": {
        "type": "Point",
        "coordinates": [
          -6.333003041186655,
          -9.030795441730415
        ]
      }
    },
    {
      "type": "Feature",
      "properties": {
        "norad_id": 2965,
        "name": "OPS 4947 (TRANSIT 17)",
        "group": "nnss",
        "lat": 36.56584145028572,
        "lon": -156.80552741302196,
        "alt_km": 1041.9282928456596,
        "timestamp": "2025-12-21T16:47:55.006694+00:00",
        "meta_object_name": "OPS 4947 (TRANSIT 17)",
        "meta_object_id": "1967-092A",
        "meta_epoch": "2025-12-21T04:00:48.652128",
        "meta_mean_motion": 13.53455665,
        "meta_eccentricity": 0.00467789,
        "meta_inclination": 89.2487,
        "meta_ra_of_asc_node": 23.7927,
        "meta_arg_of_pericenter": 209.4251,
        "meta_mean_anomaly": 220.3395,
        "meta_ephemeris_type": 0,
        "meta_classification_type": "U",
        "meta_norad_cat_id": 2965,
        "meta_element_set_no": 999,
        "meta_rev_at_epoch": 87211,
        "meta_bstar": 0.00018220255,
        "meta_mean_motion_dot": 1.34e-06,
        "meta_mean_motion_ddot": 0,
        "tle_line1": "1 02965U 67092A   25355.16722977  .00000134  00000+0  18220-3 0  9990",
        "tle_line2": "2 02965  89.2487  23.7927 0046778 209.4251 220.3395 13.53455665872113"
      },
      "geometry": {
        "type": "Point",
        "coordinates": [
          -156.80552741302196,
          36.56584145028572
        ]
      }
    },
    {
      "type": "Feature",
      "properties": {
        "norad_id": 3133,
        "name": "OPS 7034 (TRANSIT 18)",
        "group": "nnss",
        "lat": -53.106816595654855,
        "lon": 93.62645898485398,
        "alt_km": 1072.8474647565763,
        "timestamp": "2025-12-21T16:47:55.006709+00:00",
        "meta_object_name": "OPS 7034 (TRANSIT 18)",
        "meta_object_id": "1968-012A",
        "meta_epoch": "2025-12-21T09:08:20.853024",
        "meta_mean_motion": 13.51567661,
        "meta_eccentricity": 0.0074673,
        "meta_inclination": 90.0284,
        "meta_ra_of_asc_node": 273.6634,
        "meta_arg_of_pericenter": 144.2515,
        "meta_mean_anomaly": 336.0028,
        "meta_ephemeris_type": 0,
        "meta_classification_type": "U",
        "meta_norad_cat_id": 3133,
        "meta_element_set_no": 999,
        "meta_rev_at_epoch": 57035,
        "meta_bstar": 0.00018666,
        "meta_mean_motion_dot": 1.34e-06,
        "meta_mean_motion_ddot": 0,
        "tle_line1": "1 03133U 68012A   25355.38079691  .00000134  00000+0  18666-3 0  9997",
        "tle_line2": "2 03133  90.0284 273.6634 0074673 144.2515 336.0028 13.51567661570358"
      },
      "geometry": {
        "type": "Point",
        "coordinates": [
          93.62645898485398,
          -53.106816595654855
        ]
      }
    },
    {
      "type": "Feature",
      "properties": {
        "norad_id": 4507,
        "name": "NNSS 19 (TRANSIT 19)",
        "group": "nnss",
        "lat": -13.804071317997842,
        "lon": 54.53874099241661,
        "alt_km": 1033.9640989165655,
        "timestamp": "2025-12-21T16:47:55.006721+00:00",
        "meta_object_name": "NNSS 19 (TRANSIT 19)",
        "meta_object_id": "1970-067A",
        "meta_epoch": "2025-12-21T08:42:56.920320",
        "meta_mean_motion": 13.51316766,
        "meta_eccentricity": 0.0170228,
        "meta_inclination": 90.005,
        "meta_ra_of_asc_node": 234.5398,
        "meta_arg_of_pericenter": 268.1418,
        "meta_mean_anomaly": 90.0231,
        "meta_ephemeris_type": 0,
        "meta_classification_type": "U",
        "meta_norad_cat_id": 4507,
        "meta_element_set_no": 999,
        "meta_rev_at_epoch": 72338,
        "meta_bstar": 0.00014686,
        "meta_mean_motion_dot": 1.12e-06,
        "meta_mean_motion_ddot": 0,
        "tle_line1": "1 04507U 70067A   25355.36315880  .00000112  00000+0  14686-3 0  9991",
        "tle_line2": "2 04507  90.0050 234.5398 0170228 268.1418  90.0231 13.51316766723383"
      },
      "geometry": {
        "type": "Point",
        "coordinates": [
          54.53874099241661,
          -13.804071317997842
        ]
      }
    },
    {
      "type": "Feature",
      "properties": {
        "norad_id": 6909,
        "name": "NNSS 20 (TRANSIT 20)",
        "group": "nnss",
        "lat": -17.46111425672321,
        "lon": 74.96517344056643,
        "alt_km": 1093.908666921273,
        "timestamp": "2025-12-21T16:47:55.006732+00:00",
        "meta_object_name": "NNSS 20 (TRANSIT 20)",
        "meta_object_id": "1973-081A",
        "meta_epoch": "2025-12-21T10:35:52.643328",
        "meta_mean_motion": 13.71438625,
        "meta_eccentricity": 0.0156369,
        "meta_inclination": 89.8562,
        "meta_ra_of_asc_node": 254.9238,
        "meta_arg_of_pericenter": 52.5426,
        "meta_mean_anomaly": 308.9843,
        "meta_ephemeris_type": 0,
        "meta_classification_type": "U",
        "meta_norad_cat_id": 6909,
        "meta_element_set_no": 999,
        "meta_rev_at_epoch": 80480,
        "meta_bstar": 0.00025655,
        "meta_mean_motion_dot": 2.63e-06,
        "meta_mean_motion_ddot": 0,
        "tle_line1": "1 06909U 73081A   25355.44158152  .00000263  00000+0  25655-3 0  9999",
        "tle_line2": "2 06909  89.8562 254.9238 0156369  52.5426 308.9843 13.71438625804806"
      },
      "geometry": {
        "type": "Point",
        "coordinates": [
          74.96517344056643,
          -17.46111425672321
        ]
      }
    },
    {
      "type": "Feature",
      "properties": {
        "norad_id": 10457,
        "name": "TRANSAT",
        "group": "nnss",
        "lat": 55.97199030262599,
        "lon": -102.24196180178251,
        "alt_km": 1055.8506411613707,
        "timestamp": "2025-12-21T16:47:55.006743+00:00",
        "meta_object_name": "TRANSAT",
        "meta_object_id": "1977-106A",
        "meta_epoch": "2025-12-21T12:40:51.231072",
        "meta_mean_motion": 13.48944881,
        "meta_eccentricity": 0.0026227,
        "meta_inclination": 89.6479,
        "meta_ra_of_asc_node": 78.2859,
        "meta_arg_of_pericenter": 164.38,
        "meta_mean_anomaly": 207.0891,
        "meta_ephemeris_type": 0,
        "meta_classification_type": "U",
        "meta_norad_cat_id": 10457,
        "meta_element_set_no": 999,
        "meta_rev_at_epoch": 36862,
        "meta_bstar": 0.00012966,
        "meta_mean_motion_dot": 9.2e-07,
        "meta_mean_motion_ddot": 0,
        "tle_line1": "1 10457U 77106A   25355.52837073  .00000092  00000+0  12966-3 0  9990",
        "tle_line2": "2 10457  89.6479  78.2859 0026227 164.3800 207.0891 13.48944881368624"
      },
      "geometry": {
        "type": "Point",
        "coordinates": [
          -102.24196180178251,
          55.97199030262599
        ]
      }
    },
    {
      "type": "Feature",
      "properties": {
        "norad_id": 12458,
        "name": "NOVA 1",
        "group": "nnss",
        "lat": -81.13016615126634,
        "lon": 90.31411251432132,
        "alt_km": 1191.1192399745605,
        "timestamp": "2025-12-21T16:47:55.006753+00:00",
        "meta_object_name": "NOVA 1",
        "meta_object_id": "1981-044A",
        "meta_epoch": "2025-12-21T08:29:23.478144",
        "meta_mean_motion": 13.23279339,
        "meta_eccentricity": 0.0015835,
        "meta_inclination": 89.8527,
        "meta_ra_of_asc_node": 91.2635,
        "meta_arg_of_pericenter": 82.8153,
        "meta_mean_anomaly": 347.8596,
        "meta_ephemeris_type": 0,
        "meta_classification_type": "U",
        "meta_norad_cat_id": 12458,
        "meta_element_set_no": 999,
        "meta_rev_at_epoch": 15300,
        "meta_bstar": 0.00010563,
        "meta_mean_motion_dot": 5.4e-07,
        "meta_mean_motion_ddot": 0,
        "tle_line1": "1 12458U 81044A   25355.35374396  .00000054  00000+0  10563-3 0  9993",
        "tle_line2": "2 12458  89.8527  91.2635 0015835  82.8153 347.8596 13.23279339153009"
      },
      "geometry": {
        "type": "Point",
        "coordinates": [
          90.31411251432132,
          -81.13016615126634
        ]
      }
    }
  ]
}